[{"OBJECT_NAME":"FLOCK 4G-13","OBJECT_ID":"2025-009N","EPOCH":"2026-03-09T16:57:12.071808","MEAN_MOTION":15.32770015,"ECCENTRICITY":0.0003801,"INCLINATION":97.4019,"RA_OF_ASC_NODE":151.0918,"ARG_OF_PERICENTER":292.7207,"MEAN_ANOMALY":67.3633,"EPHEMERIS_TYPE":0,"CLASSIFICATION_TYPE":"U","NORAD_CAT_ID":62621,"ELEMENT_SET_NO":999,"REV_AT_EPOCH":6370,"BSTAR":0.0016695386,"MEAN_MOTION_DOT":0.00053076,"MEAN_MOTION_DDOT":0},{"OBJECT_NAME":"STARLINK-34238","OBJECT_ID":"2025-192M","EPOCH":"2026-03-09T17:03:28.927872","MEAN_MOTION":15.30189159,"ECCENTRICITY":0.00011603,"INCLINATION":53.1599,"RA_OF_ASC_NODE":232.5203,"ARG_OF_PERICENTER":100.6787,"MEAN_ANOMALY":259.4344,"EPHEMERIS_TYPE":0,"CLASSIFICATION_TYPE":"U","NORAD_CAT_ID":65415,"ELEMENT_SET_NO":999,"REV_AT_EPOCH":2938,"BSTAR":0.00066904788,"MEAN_MOTION_DOT":0.00019501,"MEAN_MOTION_DDOT":0}]
